TROLL                   
1 62658U 25009BB  26068.22522958  .00013174  00000+0  48220-3 0  9994
2 62658  97.3932 150.7169 0001816  59.1850 300.9568 15.28164315118170
STARLINK-33975          
1 63802U 25091AC  26068.80684693  .00025298  00000+0  92444-3 0  9993
2 63802  43.0059  51.5543 0004425 308.3925  51.6529 15.27618476 49031
